*******************************************************************************
 Revised: Jun 13, 2024        CAPSTONE / Spacecraft (Moon)                -1176
      https://www.nasa.gov/directorates/spacetech/small_spacecraft/capstone

 BACKGROUND:
  NASA's "Cislunar Autonomous Positioning System Technology Operations and 
  Navigation Experiment" (CAPSTONE) is a 12U CubeSat pathfinder for Gateway, 
  a future Moon-orbiting outpost in NASA's Artemis program.

  Launched from Mahia Peninsula, New Zealand on an Electron rocket (Rocket Lab)
  June 28, 2022, at 09:55:52 UTC. 

  Remained attached to Photon upper-stage for first six days, through apogee 
  raising maneuvers. Separation and start of independent operations occurred 
  July 4, 2022.

  After a three-month journey to its target destination, CAPSTONE will orbit 
  the Moon for at least six months, testing navigation technologies and 
  dynamics of the near rectilinear halo-shaped (NRHO) orbit to be used by 
  Gateway. 

  Every seven days, the trajectory will bring CAPSTONE within 1,000 miles of 
  one lunar pole at periapse, and 43,500 miles from the other pole at apoapse. 
  
  The NRHO provides the advantage of an unobstructed view of Earth in addition 
  to coverage of the lunar South Pole.

 MISSION GOALS:
  - Verify the characteristics of a cis-lunar near rectilinear halo orbit for 
     future spacecraft
  - Demonstrate the NRHO as an efficient path to the Moon's surface and back
  - Demonstrate spacecraft-to-spacecraft navigation services (with LRO)
  - Lay a foundation for commercial support of future lunar operations
  - Gain experience with small dedicated launches of CubeSats beyond low-Earth 
     orbit, to the Moon, and elsewhere 

 SPACECRAFT PHYSICAL CHARACTERISTICS:
   * Dimensions (bus)    : 34 cm x 34 cm x 61 cm
   * Launch mass         : 25 kg
   * Power               : Two solar panel extensions from bus
   * Propulsion          : 8 hyrazine thrusters

 SPACECRAFT TRAJECTORY:
  Trajectory from launch, with tag-up predictions from navigation.
  Data through Jun 09, 2024. Prediction thereafter.

  Trajectory name                              Start (TDB)    Stop (TDB)
  ----------------------------------------  ----------------- -----------------
  photon_capstone_full_mission              2022-Jun-28 10:07 2022-Jul-04 17:15
  Merge of 63 files (od007 to od187)        2022-Jul-04 17:15 2024-Jul-09 19:59 
 *******************************************************************************


*******************************************************************************
Ephemeris / WWW_USER Fri Jun 21 00:25:23 2024 Pasadena, USA      / Horizons
*******************************************************************************
Target body name: CAPSTONE (spacecraft) (-1176)   {source: CAPSTONE_merged}
Center body name: Moon (301)                      {source: DE441}
Center-site name: BODY CENTER
*******************************************************************************
Start time      : A.D. 2022-Nov-26 00:00:00.0000 TDB
Stop  time      : A.D. 2022-Nov-27 00:00:00.0000 TDB
Step-size       : 1 minutes
*******************************************************************************
Center geodetic : 0.0, 0.0, 0.0                   {E-lon(deg),Lat(deg),Alt(km)}
Center cylindric: 0.0, 0.0, 0.0                   {E-lon(deg),Dxy(km),Dz(km)}
Center radii    : 1737.4, 1737.4, 1737.4 km       {Equator_a, b, pole_c}
Output units    : KM-S
Calendar mode   : Mixed Julian/Gregorian
Output type     : GEOMETRIC cartesian states
Output format   : 3 (position, velocity, LT, range, range-rate)
Reference frame : ICRF
*******************************************************************************
JDTDB
   X     Y     Z
   VX    VY    VZ
   LT    RG    RR
*******************************************************************************
$$SOE
2459909.916666667 = A.D. 2022-Nov-26 10:00:00.0000 TDB 
 X =-1.761713370148963E+04 Y = 8.190063222254953E+03 Z =-2.824769602636470E+04
 VX= 6.665195851575523E-02 VY=-1.663796017609239E-01 VZ= 3.838565819557929E-01
 LT= 1.143581516772755E-01 RG= 3.428371138366724E+04 RR=-3.902710478753638E-01
2459909.917361111 = A.D. 2022-Nov-26 10:01:00.0000 TDB 
 X =-1.761313044027553E+04 Y = 8.180078334303792E+03 Z =-2.822465813868308E+04
 VX= 6.679012083905270E-02 VY=-1.664500027520006E-01 VZ= 3.840730488465392E-01
 LT= 1.142800215616825E-01 RG= 3.426028856426979E+04 RR=-3.904896378965126E-01
2459909.918055556 = A.D. 2022-Nov-26 10:02:00.0000 TDB 
 X =-1.760911888231598E+04 Y = 8.170089221187098E+03 Z =-2.820160725552731E+04
 VX= 6.692851681068034E-02 VY=-1.665204406238097E-01 VZ= 3.842897645275601E-01
 LT= 1.142018476742708E-01 RG= 3.423685262241121E+04 RR=-3.907084633402703E-01
2459909.918750000 = A.D. 2022-Nov-26 10:03:00.0000 TDB 
 X =-1.760509901357160E+04 Y = 8.160095880689903E+03 Z =-2.817854336195190E+04
 VX= 6.706714711459839E-02 VY=-1.665909154472230E-01 VZ= 3.845067296022385E-01
 LT= 1.141236299678666E-01 RG= 3.421340354394920E+04 RR=-3.909275247722596E-01
2459909.919444445 = A.D. 2022-Nov-26 10:04:00.0000 TDB 
 X =-1.760107081996185E+04 Y = 8.150098310592980E+03 Z =-2.815546644297506E+04
 VX= 6.720601243754985E-02 VY=-1.666614272932123E-01 VZ= 3.847239446760068E-01
 LT= 1.140453683951830E-01 RG= 3.418994131470743E+04 RR=-3.911468227599886E-01
2459909.920138889 = A.D. 2022-Nov-26 10:05:00.0000 TDB 
 X =-1.759703428736492E+04 Y = 8.140096508672844E+03 Z =-2.813237648357865E+04
 VX= 6.734511346907475E-02 VY=-1.667319762328496E-01 VZ= 3.849414103563555E-01
 LT= 1.139670629088191E-01 RG= 3.416646592047549E+04 RR=-3.913663578728594E-01
2459909.920833333 = A.D. 2022-Nov-26 10:06:00.0000 TDB 
 X =-1.759298940161755E+04 Y = 8.130090472701741E+03 Z =-2.810927346870798E+04
 VX= 6.748445090152450E-02 VY=-1.668025623373071E-01 VZ= 3.851591272528427E-01
 LT= 1.138887134612598E-01 RG= 3.414297734700875E+04 RR=-3.915861306821756E-01
2459909.921527778 = A.D. 2022-Nov-26 10:07:00.0000 TDB 
 X =-1.758893614851482E+04 Y = 8.120080200447645E+03 Z =-2.808615738327175E+04
 VX= 6.762402543007637E-02 VY=-1.668731856778562E-01 VZ= 3.853770959771026E-01
 LT= 1.138103200048757E-01 RG= 3.411947558002824E+04 RR=-3.918061417611507E-01
2459909.922222222 = A.D. 2022-Nov-26 10:08:00.0000 TDB 
 X =-1.758487451381006E+04 Y = 8.110065689674249E+03 Z =-2.806302821214190E+04
 VX= 6.776383775274801E-02 VY=-1.669438463258678E-01 VZ= 3.855953171428552E-01
 LT= 1.137318824919222E-01 RG= 3.409596060522053E+04 RR=-3.920263916849169E-01
2459909.922916667 = A.D. 2022-Nov-26 10:09:00.0000 TDB 
 X =-1.758080448321459E+04 Y = 8.100046938140963E+03 Z =-2.803988594015346E+04
 VX= 6.790388857041206E-02 VY=-1.670145443528117E-01 VZ= 3.858137913659149E-01
 LT= 1.136534008745397E-01 RG= 3.407243240823762E+04 RR=-3.922468810305319E-01
2459909.923611111 = A.D. 2022-Nov-26 10:10:00.0000 TDB 
 X =-1.757672604239763E+04 Y = 8.090023943602902E+03 Z =-2.801673055210449E+04
 VX= 6.804417858681089E-02 VY=-1.670852798302563E-01 VZ= 3.860325192642001E-01
 LT= 1.135748751047528E-01 RG= 3.404889097469685E+04 RR=-3.924676103769889E-01
2459909.924305555 = A.D. 2022-Nov-26 10:11:00.0000 TDB 
 X =-1.757263917698607E+04 Y = 8.079996703810889E+03 Z =-2.799356203275586E+04
 VX= 6.818470850857140E-02 VY=-1.671560528298687E-01 VZ= 3.862515014577423E-01
 LT= 1.134963051344699E-01 RG= 3.402533629018075E+04 RR=-3.926885803052234E-01
2459909.925000000 = A.D. 2022-Nov-26 10:12:00.0000 TDB 
 X =-1.756854387256431E+04 Y = 8.069965216511439E+03 Z =-2.797038036683121E+04
 VX= 6.832547904521998E-02 VY=-1.672268634234138E-01 VZ= 3.864707385686956E-01
 LT= 1.134176909154830E-01 RG= 3.400176834023693E+04 RR=-3.929097913981226E-01
2459909.925694444 = A.D. 2022-Nov-26 10:13:00.0000 TDB 
 X =-1.756444011467410E+04 Y = 8.059929479446763E+03 Z =-2.794718553901678E+04
 VX= 6.846649090919735E-02 VY=-1.672977116827543E-01 VZ= 3.866902312213458E-01
 LT= 1.133390323994675E-01 RG= 3.397818711037798E+04 RR=-3.931312442405331E-01
2459909.926388889 = A.D. 2022-Nov-26 10:14:00.0000 TDB 
 X =-1.756032788881435E+04 Y = 8.049889490354754E+03 Z =-2.792397753396129E+04
 VX= 6.860774481587387E-02 VY=-1.673685976798503E-01 VZ= 3.869099800421197E-01
 LT= 1.132603295379810E-01 RG= 3.395459258608134E+04 RR=-3.933529394192701E-01
2459909.927083333 = A.D. 2022-Nov-26 10:15:00.0000 TDB 
 X =-1.755620718044098E+04 Y = 8.039845246968986E+03 Z =-2.790075633627579E+04
 VX= 6.874924148356454E-02 VY=-1.674395214867590E-01 VZ= 3.871299856595953E-01
 LT= 1.131815822824641E-01 RG= 3.393098475278917E+04 RR=-3.935748775231250E-01
2459909.927777778 = A.D. 2022-Nov-26 10:16:00.0000 TDB 
 X =-1.755207797496668E+04 Y = 8.029796747018703E+03 Z =-2.787752193053359E+04
 VX= 6.889098163354435E-02 VY=-1.675104831756345E-01 VZ= 3.873502487045102E-01
 LT= 1.131027905842389E-01 RG= 3.390736359590825E+04 RR=-3.937970591428746E-01
2459909.928472222 = A.D. 2022-Nov-26 10:17:00.0000 TDB 
 X =-1.754794025776082E+04 Y = 8.019743988228824E+03 Z =-2.785427430127005E+04
 VX= 6.903296599006371E-02 VY=-1.675814828187270E-01 VZ= 3.875707698097722E-01
 LT= 1.130239543945093E-01 RG= 3.388372910080985E+04 RR=-3.940194848712895E-01
2459909.929166667 = A.D. 2022-Nov-26 10:18:00.0000 TDB 
 X =-1.754379401414920E+04 Y = 8.009686968319926E+03 Z =-2.783101343298251E+04
 VX= 6.917519528036382E-02 VY=-1.676525204883831E-01 VZ= 3.877915496104683E-01
 LT= 1.129450736643602E-01 RG= 3.386008125282962E+04 RR=-3.942421553031427E-01
2459909.929861111 = A.D. 2022-Nov-26 10:19:00.0000 TDB 
 X =-1.753963922941390E+04 Y = 7.999625685008239E+03 Z =-2.780773931013014E+04
 VX= 6.931767023469231E-02 VY=-1.677235962570447E-01 VZ= 3.880125887438746E-01
 LT= 1.128661483447575E-01 RG= 3.383642003726747E+04 RR=-3.944650710352182E-01
